<?xml version="1.0" encoding="UTF-8"?>
<kml xmlns="http://www.opengis.net/kml/2.2" xmlns:gx="http://www.google.com/kml/ext/2.2">
    <Document id="1">
        <Style id="4">
            <LineStyle id="5">
                <color>641400F0</color>
                <colorMode>normal</colorMode>
            </LineStyle>
            <PolyStyle id="6">
                <color>641400F0</color>
                <colorMode>normal</colorMode>
                <fill>1</fill>
                <outline>1</outline>
            </PolyStyle>
        </Style>
        <open>1</open>
        <Placemark id="3">
            <name>Rocket Trajectory - Powered by RocketPy</name>
            <styleUrl>#4</styleUrl>
            <LineString id="2">
                <extrude>1</extrude>
                <altitudeMode>relativeToGround</altitudeMode>
                <coordinates>-49.0225,-21.8914,0.0 -49.0225,-21.8914,-1.232595164407831e-32 -49.0225,-21.8914,2.465190328815662e-32 -49.0225,-21.8914,-1.3805065841367707e-30 -49.0225,-21.8914,4.733165431326071e-30 -49.0225,-21.8914,3.1554436208840472e-30 -49.0225,-21.8914,-5.6545549686242126e-27 -49.0225,-21.8914,2.0194839173657902e-28 -49.0225,-21.8914,8.077935669463161e-28 -49.0225,-21.8914,-3.2311742677852644e-27 -49.0225,-21.8914,0.0 -49.0225,-21.8914,-1.550963648536927e-25 -49.0225,-21.8914,0.0 -49.0225,-21.8914,0.0 -49.0225,-21.8914,-8.271806125530277e-25 -49.0225,-21.8914,0.0 -49.0225,-21.89139999999857,1.8231692706649478e-06 -49.0225,-21.891399999985623,1.82871106062521e-05 -49.0225,-21.891399999943562,7.178271789598512e-05 -49.0225,-21.891399999851874,0.00018839187418961956 -49.0225,-21.89139999179374,0.010436716140475255 -49.0225,-21.891399989113847,0.013845002404764273 -49.0225,-21.891399985902677,0.01792896398018229 -49.0225,-21.89139998209032,0.022777511291451447 -49.0225,-21.891399978282912,0.02761977028592355 -49.0225,-21.89139997479207,0.03205941639834009 -49.0225,-21.891399970946818,0.03694980836837658 -49.0225,-21.89139996674541,0.04229315351847163 -49.0225,-21.89139995726777,0.05434680119105906 -49.0225,-21.891399946344393,0.06823913854236707 -49.0225,-21.89139993396166,0.08398748471250883 -49.0225,-21.891399920105655,0.10160953270747086 -49.0225,-21.891399896182335,0.13203518614074028 -49.0225,-21.891399868772652,0.16689479107958505 -49.0225,-21.89139983782761,0.2062506630883263 -49.0225,-21.891399824450076,0.2232641882402504 -49.0225,-21.89139981049612,0.2410108156690285 -49.0225,-21.891399795965306,0.2594910846144103 -49.0225,-21.891399777672316,0.28275609108072786 -49.0225,-21.89139975855595,0.3070682621271317 -49.0225,-21.891399738626784,0.3324141504676277 -49.0225,-21.891399496909685,0.6398296751631278 -49.0225,-21.891399450391056,0.6989920131563849 -49.0225,-21.891399402038104,0.7604872400506224 -49.0225,-21.891399351861338,0.8243019899824162 -49.0225,-21.89139924602306,0.958906985126248 -49.0225,-21.891399132851294,1.102838704577266 -49.0225,-21.8913990123187,1.25613192205941 -49.0225,-21.89139792603025,2.6376722913941535 -49.0225,-21.891397066129365,3.7312932239390193 -49.02250000000012,-21.89139702803248,3.779710519637206 -49.02250000000037,-21.891396989662812,3.8284404663605187 -49.022500000001116,-21.891396912377594,3.926526061009554 -49.02250000000236,-21.89139683400002,4.0258638564441185 -49.022500000004115,-21.891396754528863,4.126455449605089 -49.02250000003975,-21.891396042745455,5.022249203516196 -49.022500000115464,-21.891395252795565,6.007788921661302 -49.022500000234956,-21.891394383952182,7.084022172249433 -49.022500000401934,-21.891393435489633,8.251891869665485 -49.022500000587875,-21.891392548443147,9.338990032577613 -49.022500000814496,-21.891391600819592,10.495911141510078 -49.02250000108398,-21.8913905924305,11.722887168722593 -49.0225000013984,-21.891389523051462,13.020183757894927 -49.02250000191714,-21.89138792455815,14.95316946173756 -49.02250000253197,-21.891386205600444,17.02495780091982 -49.022500003246314,-21.891384365423534,19.23626296600156 -49.02250000406263,-21.89138240319206,21.58779606567805 -49.022500004982,-21.89138031797442,24.08026479020515 -49.022500006422995,-21.891377228629125,27.76193277383169 -49.02250000805556,-21.891373898763884,31.71651308584586 -49.02250000987054,-21.891370324737007,35.945843804868105 -49.02250001185973,-21.891366502451973,40.45168293015098 -49.02250001401747,-21.891362427736997,45.23527308972473 -49.02250001634471,-21.891358096971935,50.29669162663299 -49.02250001837632,-21.89135437777987,54.62442286586651 -49.022500020548705,-21.891350484161375,59.13634176307352 -49.0225000228881,-21.891346414223232,63.832210176153694 -49.02250002543179,-21.891342166043817,68.7119754333861 -49.02250002822747,-21.891337737985754,73.77550338695289 -49.02250003133068,-21.891333128705302,79.02267062237138 -49.022500034802064,-21.891328337245934,84.45334263081651 -49.02250003870213,-21.891323363081217,90.0673780894715 -49.0225000430862,-21.89131820614425,95.8646162988573 -49.02250004688551,-21.89131404161106,100.53082980084741 -49.02250005102372,-21.89130976586636,105.30883831848575 -49.02250005551183,-21.891305379635458,110.19822354158282 -49.02250006035286,-21.891300883606736,115.19866696829183 -49.022500065544456,-21.891296278551664,120.30976762486364 -49.022500071077665,-21.891291565175067,125.53115034792063 -49.022500076253266,-21.891287300972614,130.2470834851232 -49.02250008167782,-21.891282952656425,135.04893254473347 -49.02250008734161,-21.891278520480412,139.93641780238477 -49.02250009323644,-21.89127400459067,144.90925475633037 -49.022500099356705,-21.891269405020996,149.96715421165663 -49.02250010570086,-21.89126472170083,155.10982195394615 -49.022500110143426,-21.891261489704103,158.65446920719592 -49.02250011469296,-21.891258218852695,162.23806621357824 -49.02250011935236,-21.89125490906789,165.86051681213974 -49.022500124126005,-21.89125156026628,169.52172406379077 -49.022500129018965,-21.891248172365152,173.221589964813 -49.02250013572249,-21.891243605322668,178.20259983627614 -49.022500142663205,-21.89123896887439,183.2515395748843 -49.02250014985732,-21.89123426302109,188.3680727331547 -49.022500157318476,-21.891229487825427,193.5518721556234 -49.02250016506025,-21.891224643437045,198.80260696538846 -49.022500173092524,-21.891219730097717,204.11994011581044 -49.0225001814236,-21.891214748132654,209.50353536971147 -49.02250019005863,-21.891209697942863,214.95305377526824 -49.0225001989993,-21.89120457998824,220.46815333549023 -49.022500208245866,-21.891199394764843,226.04848940746547 -49.02250021779652,-21.891194142778197,231.69371431709635 -49.02250022764937,-21.891188824517673,237.40347738926084 -49.02250023780327,-21.89118344043032,243.17742402469935 -49.02250024825788,-21.891177990901987,249.01519637146896 -49.022500259016205,-21.891172476243298,254.9164321940931 -49.02250027008174,-21.891166896685753,260.8807653599189 -49.02250028146204,-21.891161252387583,266.9078258128877 -49.02250029316436,-21.8911555434453,272.9972400748169 -49.0225003051972,-21.891149769920126,279.1486319484252 -49.022500315288696,-21.891145000893317,284.22447530995885 -49.0225003256088,-21.891140188676918,289.34137598375196 -49.02250033616187,-21.891135333229858,294.49922547315805 -49.02250034694918,-21.89113043457208,299.6978775897279 -49.022500357974344,-21.891125492724807,304.93722237964425 -49.02250036923927,-21.891120507742887,310.217147406996 -49.02250038192401,-21.89111496806645,316.07866540700354 -49.02250039490534,-21.891109376363627,321.98910838583254 -49.02250040817993,-21.89110373284983,327.94832107616514 -49.02250042176015,-21.891098037758535,333.9561516879529 -49.02250043563668,-21.89109229132268,340.0124461390608 -49.022500449827255,-21.89108649378829,346.1170499009303 -49.02250046433385,-21.89108064532501,352.26980683957595 -49.02250047004056,-21.891078362056838,354.6704293354835 -49.022500475803696,-21.89107607115064,357.07827066899574 -49.022500481611,-21.891073772618107,359.49332164318514 -49.02250048746981,-21.891071466464055,361.9155729681919 -49.02250049337579,-21.891069152692175,364.345015322461 -49.02250049933221,-21.891066831307423,366.781639387876 -49.02250050762483,-21.89106361887009,370.1522102114815 -49.02250051601244,-21.8910603919748,373.53638516739704 -49.02250052449584,-21.891057150622874,376.9341395951461 -49.02250053307579,-21.891053894820736,380.34544237566683 -49.02250054175302,-21.891050624599533,383.77023490747854 -49.02250055052806,-21.891047340010843,387.208436632479 -49.022500559401486,-21.891044041093426,390.6599807309433 -49.02250056837376,-21.89104072789199,394.1247952872278 -49.02250057973256,-21.89103656496856,398.47583437505136 -49.022500591247145,-21.89103237988585,402.8473639586583 -49.02250060291767,-21.891028172846223,407.2391407401217 -49.02250061187018,-21.89102496851788,410.58237918279576 -49.022500619353586,-21.89102230487576,413.36031872295973 -49.022500626896736,-21.89101963334345,416.1454252403047 -49.02250063449897,-21.891016954194846,418.937412744569 -49.02250064215972,-21.891014267653706,421.73604896283814 -49.02250065005033,-21.89101151410274,424.60340547863836 -49.02250065800081,-21.891008753336965,427.4771836867046 -49.02250066601051,-21.891005985614058,430.3571193520213 -49.02250067407881,-21.891003211190846,433.24294982638287 -49.0225006822051,-21.891000430324457,436.1344126156396 -49.02250069038875,-21.89099764327289,439.03124455112527 -49.02250070124027,-21.890993968087415,442.84958811726005 -49.02250071218878,-21.890990283232455,446.6761678370873 -49.022500723233065,-21.890986589292368,450.51038575865334 -49.02250073437199,-21.890982886848782,454.35164475181386 -49.02250074560443,-21.89097917648064,458.1993480570012 -49.022500756929254,-21.890975458763986,462.05289927439014 -49.02250076834533,-21.890971734271652,465.9117026303925 -49.02250077985154,-21.89096800357313,469.77516314975105 -49.022500788947276,-21.89096507069865,472.8111628976743 -49.022500798097376,-21.890962134621,475.84937968522615 -49.02250080730128,-21.890959195612187,478.8895266452338 -49.02250081655839,-21.890956253943493,481.93131722900205 -49.02250082586813,-21.890953309885614,484.9744652355895 -49.022500835229856,-21.890950363696835,488.01869730681005 -49.022500844643055,-21.890947415599282,491.06377754083917 -49.02250085410734,-21.89094446576131,494.10952588729697 -49.02250086362254,-21.89094151428477,497.1558314112624 -49.02250087318836,-21.890938561264694,500.2025906670052 -49.022500882804415,-21.890935606840063,503.24965539953496 -49.02250089247016,-21.89093265117113,506.2968562070432 -49.02250090218514,-21.89092969439235,509.3440512346639 -49.022500911948896,-21.890926736617857,512.3911205040868 -49.022500921760894,-21.890923777967103,515.4379394826037 -49.02250093270456,-21.8909204940355,518.8183828143682 -49.02250094184636,-21.890917763469652,521.6281170610844 -49.02250095102814,-21.890915032369413,524.4374213898282 -49.02250096024971,-21.890912300759602,527.2462716395471 -49.02250096951079,-21.890909568682332,530.0546262990144 -49.022500978811074,-21.890906836190723,532.8624329360177 -49.022500988150306,-21.890904103331508,535.6696460318728 -49.0225009989861,-21.89090094623326,538.9114354255121 -49.022501009873196,-21.890897788752305,542.1523303225606 -49.02250102081127,-21.890894630952722,545.3922694522151 -49.02250103179998,-21.890891472903846,548.6311860670767 -49.02250104283905,-21.89088831467315,551.8690151072693 -49.022501053928224,-21.89088515632392,555.1056954503698 -49.0225010650673,-21.890881997917898,558.3411670867564 -49.02250107625611,-21.890878839517626,561.5753685607901 -49.022501087494504,-21.890875681186145,564.8082372681725 -49.02250109878236,-21.89087252298548,568.0397109485074 -49.02250111011959,-21.8908693649761,571.2697282136121 -49.02250112150614,-21.890866207217485,574.4982279957566 -49.022501132941954,-21.89086304976867,577.7251489943276 -49.022501144426975,-21.89085989268831,580.9504297360592 -49.02250115596113,-21.890856736034397,584.174008905416 -49.02250116754435,-21.89085357986429,587.3958254550106 -49.02250117917655,-21.890850424234937,590.615818474042 -49.022501190857646,-21.890847269203107,593.8339270737598 -49.0225012025875,-21.89084411482548,597.0500904115944 -49.022501214365974,-21.89084096115868,600.2642477643565 -49.02250122619287,-21.890837808259416,603.4763385466931 -49.022501239364374,-21.89083431290388,607.0358095706349 -49.02250125259486,-21.89083081864013,610.5925826052662 -49.022501265883925,-21.890827325546688,614.146575457992 -49.022501279231186,-21.890823833702758,617.6977060969025 -49.02250129263618,-21.89082034318813,621.2458926564445 -49.02250130609838,-21.890816854083305,624.7910534380067 -49.02250131961725,-21.890813366469494,628.3331069039832 -49.02250133319223,-21.89080988042854,631.871971670198 -49.02250134682272,-21.890806396042787,635.4075665020598 -49.02250136050809,-21.89080291339509,638.9398103136948 -49.02250137424771,-21.8907994325687,642.4686221687803 -49.02250138804102,-21.890795953647086,645.9939212856248 -49.02250140188748,-21.890792476713745,649.5156270388693 -49.02250141578657,-21.890789001852063,653.0336589512365 -49.02250142973775,-21.890785529139745,656.5479422684359 -49.02250144374065,-21.89078205862985,660.0584269950739 -49.022501457795094,-21.890778590336012,663.5651027563933 -49.02250147190104,-21.89077512424341,667.0679875519572 -49.022501487660335,-21.89077126933632,670.961975432841 -49.02250150348337,-21.890767417129453,674.8513000742535 -49.0225015193701,-21.890763567621917,678.735964203647 -49.02250153532057,-21.89075972080903,682.6159735594258 -49.022501551334884,-21.890755876679048,686.4913402613579 -49.022501567413144,-21.890752035217318,690.3620787000566 -49.02250158355549,-21.89074819641078,694.2282010709825 -49.02250159976205,-21.890744360248593,698.0897169179289 -49.022501616032926,-21.890740526720034,701.9466354016058 -49.022501632368204,-21.890736695813064,705.7989668995806 -49.02250164876794,-21.890732867514917,709.6467226168395 -49.02250166523217,-21.890729041813277,713.4899134828172 -49.0225016817608,-21.89072521869691,717.3285496540466 -49.022501698353665,-21.890721398155247,721.1626410719919 -49.022501715010556,-21.890717580177984,724.9921979909475 -49.02250173173126,-21.89071376475519,728.8172308608264 -49.022501748515594,-21.890709951877657,732.6377499762407 -49.02250176536333,-21.890706141536928,736.4537654049379 -49.02250178227423,-21.890702333725145,740.2652871597597 -49.02250179924803,-21.890698528434864,744.0723253085678 -49.02250181628448,-21.890694725658996,747.8748899210625 -49.022501833383345,-21.89069092539079,751.6729909840176 -49.02250185054442,-21.890687127623732,755.4666383949034 -49.02250186776749,-21.890683332351404,759.2558420054165 -49.022501885052364,-21.890679539567365,763.0406116421616 -49.02250190239886,-21.890675749265068,766.8209570902507 -49.022501919806864,-21.89067196143831,770.5968875414558 -49.02250193727629,-21.890668176081995,774.3684107617191 -49.022501954807055,-21.890664393192136,778.1355330433855 -49.02250197239913,-21.89066061276486,781.8982601572918 -49.022501990052504,-21.890656834795518,785.6565982638274 -49.02250200776718,-21.890653059278602,789.4105539461564 -49.022502025543204,-21.890649286208298,793.1601337001164 -49.02250204338058,-21.89064551557882,796.9053436757931 -49.022502061279305,-21.890641747384258,800.6461898767675 -49.02250207923938,-21.890637981618358,804.3826784209384 -49.022502097260805,-21.890634218274634,808.1148155481214 -49.022502115343585,-21.89063045734655,811.8426074690831 -49.02250213348768,-21.890626698827706,815.5660602902501 -49.02250215169303,-21.890622942711808,819.2851800668598 -49.02250216995959,-21.890619188992716,822.9999728716996 -49.022502188287255,-21.890615437664437,826.7104447972156 -49.022502206675945,-21.89061168872125,830.416601918266 -49.02250222512553,-21.89060794215771,834.1184502745659 -49.02250224363586,-21.890604197968674,837.8159958839419 -49.02250226220678,-21.89060045614928,841.509244758264 -49.0225022808381,-21.890596716694926,845.1982029032904 -49.022502299529634,-21.890592979601287,848.8828763096799 -49.02250231828119,-21.89058924486424,852.563270948797 -49.02250233709257,-21.890585512479873,856.2393927753787 -49.02250235596356,-21.890581782444382,859.9112477304943 -49.02250237489398,-21.89057805475407,863.5788417408635 -49.022502393883634,-21.890574329405275,867.2421807163869 -49.022502412932354,-21.890570606394334,870.9012705488226 -49.022502432039985,-21.890566885717526,874.5561171119284 -49.02250245120641,-21.890563167371024,878.2067262616793 -49.02250247043149,-21.890559451350878,881.8531038358426 -49.02250248971516,-21.89055573765297,885.4952556533606 -49.02250250905731,-21.890552026273024,889.1331875140922 -49.0225025284579,-21.89054831720658,892.7669051989103 -49.02250254791688,-21.89054461044899,896.3964144698625 -49.02250256743421,-21.890540905995447,900.0217210702915 -49.022502587009875,-21.890537203840985,903.642830725021 -49.02250260664384,-21.890533503980496,907.259749140708 -49.022502626336106,-21.890529806408797,910.8724820063057 -49.02250264608664,-21.890526111120582,914.4810349935335 -49.02250266589544,-21.890522418110557,918.0854137573201 -49.02250268576247,-21.890518727373376,921.6856239362694 -49.022502705687685,-21.89051503890375,925.2816711531532 -49.02250272567105,-21.890511352696425,928.8735610153767 -49.0225027457125,-21.890507668746242,932.4612991153883 -49.022502765811936,-21.89050398704815,936.0448910310361 -49.02250278596926,-21.890500307597218,939.6243423258948 -49.022502806184335,-21.890496630388668,943.1996585495444 -49.02250282645702,-21.890492955417873,946.7708452377296 -49.02250284678718,-21.890489282680356,950.3379079123501 -49.02250286717466,-21.890485612171773,953.9008520813729 -49.02250288761931,-21.890481943887906,957.4596832387847 -49.02250290812098,-21.890478277824673,961.0144068645495 -49.02250292867952,-21.89047461397807,964.5650284244489 -49.022502949294775,-21.890470952344195,968.1115533698016 -49.022502969966595,-21.890467292919173,971.6539871371908 -49.02250299069486,-21.890463635699177,975.1923351482628 -49.02250301147943,-21.890459980680387,978.7266028095476 -49.022503032320174,-21.890456327858967,982.2567955122454 -49.022503053217,-21.890452677231064,985.7829186319939 -49.02250307416979,-21.890449028792766,989.304977528672 -49.02250309517847,-21.8904453825401,992.8229775462853 -49.02250311624295,-21.89044173846902,996.3369240129189 -49.02250313736317,-21.890438096575405,999.846822240715 -49.022503158539045,-21.89043445685505,1003.3526775258656 -49.02250317977054,-21.890430819303663,1006.8544951486458 -49.022503201057575,-21.89042718391688,1010.3522803735334 -49.02250322240012,-21.890423550690276,1013.846038449416 -49.022503243798084,-21.890419919619358,1017.3357746098118 -49.02250326525142,-21.890416290699594,1020.8214940730395 -49.02250328676009,-21.89041266392643,1024.303202042386 -49.022503308324026,-21.89040903929528,1027.780903706334 -49.02250332994317,-21.89040541680156,1031.2546042388492 -49.022503351617466,-21.890401796440706,1034.7243087996558 -49.022503373346844,-21.890398178208187,1038.1900225344637 -49.02250339513124,-21.8903945620995,1041.6517505751685 -49.02250341697058,-21.890390948110202,1045.109498040049 -49.02250343886478,-21.890387336235896,1048.5632700339477 -49.02250346081375,-21.890383726472283,1052.0130716484177 -49.022503482817406,-21.890380118815106,1055.4589079618268 -49.022503504875644,-21.8903765132602,1058.9007840394247 -49.02250352698835,-21.890372909803467,1062.3387049333842 -49.022503549155424,-21.890369308440874,1065.7726756828204 -49.02250357137676,-21.89036570916847,1069.2027013137856 -49.022503593652225,-21.890362111982352,1072.628786839235 -49.022503615981705,-21.890358516878667,1076.0509372589706 -49.02250363836507,-21.890354923853604,1079.4691575595755 -49.022503660802215,-21.8903513329034,1082.883452714353 -49.022503683292996,-21.8903477440243,1086.2938276832488 -49.022503705837295,-21.89034415721257,1089.70028741273 -49.02250372843502,-21.890340572464467,1093.1028368356676 -49.02250375108604,-21.89033698977625,1096.5014808712733 -49.022503773790284,-21.89033340914417,1099.8962244250774 -49.022503796547625,-21.89032983056442,1103.2870723888932 -49.02250381935801,-21.890326254033198,1106.6740296407638 -49.02250384222132,-21.89032267954667,1110.057101044934 -49.022503865137516,-21.890319107100936,1113.4362914518745 -49.022503888106506,-21.890315536692093,1116.811605698341 -49.02250391112823,-21.890311968316198,1120.1830486074437 -49.02250393420264,-21.89030840196926,1123.5506249887194 -49.02250395732966,-21.890304837647275,1126.9143396382185 -49.02250398050924,-21.890301275346225,1130.2741973386123 -49.02250400374134,-21.89029771506205,1133.6302028593234 -49.02250402702588,-21.890294156790713,1136.9823609566592 -49.022504050362826,-21.89029060052814,1140.330676373945 -49.0225040737521,-21.89028704627028,1143.6751538416488 -49.02250409719364,-21.890283494013087,1147.0157980775332 -49.02250412068738,-21.890279943752542,1150.3526137868262 -49.02250414423323,-21.890276395484637,1153.6856056707409 -49.022504167831116,-21.890272849205385,1157.0147784401222 -49.022504191480955,-21.890269304910777,1160.3401368170885 -49.02250421518267,-21.890265762596858,1163.6616855201883 -49.02250423893617,-21.890262222259693,1166.9794292493118 -49.02250426274136,-21.890258683895432,1170.293372684496 -49.02250428659815,-21.890255147500238,1173.603520494039 -49.022504310506456,-21.890251613070305,1176.909877339065 -49.02250433446617,-21.89024808060187,1180.2124478706232 -49.02250435847721,-21.890244550091214,1183.5112367254223 -49.02250438253947,-21.89024102153464,1186.8062485255105 -49.02250440665286,-21.890237494928485,1190.0974878806628 -49.02250443081728,-21.890233970269104,1193.3849593896946 -49.022504455032625,-21.890230447552714,1196.668667775026 -49.02250447929883,-21.89022692677521,1199.9486180871743 -49.02250450361581,-21.890223407932087,1203.2248157116126 -49.02250452798345,-21.890219891018745,1206.4972661300878 -49.0225045524017,-21.89021637603072,1209.7659746990807 -49.02250457687046,-21.890212862963622,1213.030946647974 -49.02250460396869,-21.890208983025417,1216.6346127905495 -49.0225046311284,-21.89020510542163,1220.233729408162 -49.0225046583495,-21.890201230146197,1223.8283036370415 -49.02250468563187,-21.890197357193074,1227.4183425640192 -49.022504712975454,-21.89019348655625,1231.0038532116748 -49.02250474038014,-21.89018961822969,1234.5848425670479 -49.02250476784585,-21.890185752207376,1238.1613176024082 -49.02250479537252,-21.89018188848327,1241.7332852621303 -49.02250482296005,-21.890178027051345,1245.3007524425982 -49.02250485060838,-21.89017416790561,1248.8637259961672 -49.02250487831743,-21.89017031104009,1252.422212747325 -49.022504906087114,-21.8901664564488,1255.9762195019673 -49.022504933917375,-21.890162604125774,1259.5257530451906 -49.02250496180812,-21.89015875406507,1263.0708201354919 -49.02250498975928,-21.890154906260786,1266.6114275030138 -49.02250501777075,-21.890151060707026,1270.1475818520612 -49.02250504584246,-21.890147217397956,1273.679289863697 -49.022505073974315,-21.890143376327757,1277.2065581959127 -49.02250510216622,-21.890139537490665,1280.729393480128 -49.02250513041806,-21.890135700880965,1284.2478023122774 -49.02250515872972,-21.89013186649301,1287.7617912469648 -49.02250518710108,-21.890128034321197,1291.2713668031213 -49.02250521553204,-21.890124204359985,1294.7765354759872 -49.02250524402247,-21.890120376603857,1298.2773037431873 -49.022505272572275,-21.890116551047306,1301.7736780615746 -49.02250530118135,-21.890112727684883,1305.2656648622171 -49.02250532984956,-21.890108906511152,1308.7532705500578 -49.022505358576836,-21.890105087520727,1312.2365015069734 -49.022505387363054,-21.89010127070822,1315.715364093577 -49.02250541620814,-21.890097456068265,1319.1898646483367 -49.02250544511198,-21.8900936435955,1322.6600094861574 -49.02250547407451,-21.890089833284602,1326.1258048918774 -49.022505503095616,-21.89008602513026,1329.5872571122857 -49.022505532175224,-21.890082219127184,1333.0443723575727 -49.02250556131325,-21.890078415270096,1336.4971568123935 -49.022505590509624,-21.89007461355371,1339.9456166445354 -49.02250561976426,-21.89007081397274,1343.3897580038033 -49.022505649077075,-21.890067016521908,1346.8295870163959 -49.022505678448006,-21.890063221195938,1350.2651097830405 -49.02250570787695,-21.89005942798956,1353.6963323817945 -49.02250573736382,-21.890055636897507,1357.1232608707614 -49.02250576690854,-21.89005184791453,1360.5459012878664 -49.022505796511,-21.89004806103539,1363.9642596492383 -49.02250582617113,-21.89004427625485,1367.378341946045 -49.02250585588884,-21.890040493567717,1370.7881541386748 -49.02250588566404,-21.890036712968815,1374.1937021538197 -49.022505915496644,-21.890032934452996,1377.5949918895963 -49.02250594538658,-21.89002915801514,1380.9920292241611 -49.02250597533375,-21.890025383650134,1384.384820019348 -49.02250600533807,-21.89002161135288,1387.773370117956 -49.02250603539947,-21.89001784111833,1391.15768534042 -49.02250606551786,-21.890014072941423,1394.53777148507 -49.02250609569313,-21.890010306817167,1397.9136343304936 -49.02250612592523,-21.890006542740565,1401.2852796366574 -49.02250615621405,-21.890002780706652,1404.6527131441328 -49.02250618655952,-21.88999902071049,1408.0159405731574 -49.02250621696153,-21.889995262747174,1411.3749676201146 -49.02250624742002,-21.88999150681182,1414.7297999518482 -49.02250627793487,-21.889987752899593,1418.0804432046434 -49.02250630850601,-21.889984001005676,1421.4269029906327 -49.022506339133315,-21.889980251125277,1424.7691849050907 -49.0225063698167,-21.88997650325361,1428.1072945277574 -49.02250640055606,-21.889972757385934,1431.4412374194064 -49.02250643135131,-21.889969013517497,1434.7710191194906 -49.022506462202365,-21.889965271643575,1438.0966451472725 -49.02250649310912,-21.88996153175945,1441.4181210039515 -49.02250652407149,-21.889957793860418,1444.7354521730838 -49.02250655508939,-21.88995405794179,1448.0486441195724 -49.02250658616274,-21.889950323998875,1451.3577022890072 -49.02250661729146,-21.889946592026995,1454.6626321046097 -49.02250664847547,-21.889942862021503,1457.9634389621528 -49.02250667971469,-21.889939133977744,1461.260128229238 -49.02250671100905,-21.88993540789111,1464.5527052512225 -49.02250674235846,-21.889931683756974,1467.8411753576393 -49.02250677376287,-21.889927961570717,1471.1255438631217 -49.022506805222186,-21.88992424132773,1474.4058160642876 -49.02250683673635,-21.889920523023417,1477.6819972378225 -49.02250686830527,-21.889916806653186,1480.9540926416446 -49.022506899928885,-21.88991309221247,1484.2221075167774 -49.022506931607104,-21.889909379696693,1487.4860470876674 -49.02250696333985,-21.889905669101317,1490.7459165613438 -49.02250699512704,-21.8899019604218,1494.001721126947 -49.022507026968576,-21.889898253653623,1497.2534659537016 -49.02250705886439,-21.889894548792316,1500.501156186609 -49.02250709081439,-21.889890845833403,1503.744796944793 -49.022507122818496,-21.889887144772445,1506.984393325756 -49.022507154876635,-21.88988344560502,1510.2199504113403 -49.022507186988705,-21.88987974832672,1513.451473269556 -49.02250721915463,-21.88987605293315,1516.6789669522573 -49.022507251374336,-21.88987235941994,1519.9024364930463 -49.022507287266286,-21.889868254369286,1523.4822734472516 -49.022507323224524,-21.88986415163251,1527.0571472874426 -49.02250735924894,-21.88986005120366,1530.6270648637255 -49.02250739533942,-21.889855953076836,1534.1920330018268 -49.02250743149587,-21.88985185724615,1537.7520585023715 -49.02250746771817,-21.889847763705742,1541.3071481369873 -49.022507504006235,-21.889843672449764,1544.8573086410804 -49.02250754035994,-21.889839583472444,1548.40254671628 -49.022507576779184,-21.88983549676802,1551.942869036968 -49.022507613263855,-21.88983141233073,1555.4782822554737 -49.022507649813825,-21.88982733015481,1559.0087930025725 -49.02250768642894,-21.889823250234535,1562.5344078849805 -49.02250772310908,-21.889819172564227,1566.0551334839024 -49.02250775985415,-21.889815097138204,1569.5709763559998 -49.02250779666403,-21.8898110239508,1573.0819430349477 -49.02250783353861,-21.889806952996338,1576.588040031766 -49.02250787047778,-21.88980288426918,1580.0892738341445 -49.022507907481426,-21.889798817763705,1583.585650903658 -49.02250794454946,-21.889794753474316,1587.0771776712008 -49.02250798168179,-21.889790691395405,1590.563860535609 -49.02250801887831,-21.88978663152142,1594.0457058682111 -49.02250805613893,-21.889782573846798,1597.5227200188667 -49.022508093463564,-21.889778518366004,1600.9949093177534 -49.02250813085211,-21.889774465073504,1604.4622800730308 -49.02250816830448,-21.889770413963795,1607.9248385687883 -49.02250820582059,-21.889766365031374,1611.38259106568 -49.022508243400345,-21.88976231827076,1614.8355438026747 -49.022508281043656,-21.889758273676506,1618.283702997662 -49.02250831875041,-21.889754231243153,1621.7270748468193 -49.02250835652051,-21.88975019096531,1625.1656655220504 -49.02250839435383,-21.88974615283757,1628.5994811587511 -49.02250843225027,-21.88974211685464,1632.028527843352 -49.0225084702097,-21.889738083011245,1635.4528116185402 -49.02250850823203,-21.88973405130214,1638.872338502902 -49.02250854631713,-21.889730021722073,1642.287114503913 -49.02250858446489,-21.889725994265834,1645.6971456143806 -49.02250862267522,-21.88972196892821,1649.1024378030615 -49.022508660947985,-21.889717945704035,1652.5029970125252 -49.02250869928311,-21.889713924588154,1655.8988291641504 -49.02250873768047,-21.889709905575415,1659.2899401620211 -49.02250877613997,-21.8897058886607,1662.6763358918934 -49.022508814661514,-21.889701873838888,1666.058022218469 -49.02250885324501,-21.889697861104896,1669.4350049828454 -49.02250889189034,-21.889693850453657,1672.8072899997655 -49.02250893059742,-21.889689841880127,1676.1748830569968 -49.02250896936615,-21.889685835379268,1679.5377899187583 -49.02250900819644,-21.889681830946078,1682.896016330346 -49.02250904708818,-21.88967782857554,1686.2495680196844 -49.02250908604128,-21.889673828262673,1689.5984506956365 -49.022509125055635,-21.889669830002482,1692.9426700463655 -49.02250916413113,-21.889665833790026,1696.2822317397836 -49.02250920326767,-21.88966183962034,1699.6171414249347 -49.02250924246512,-21.889657847488508,1702.9474047324688 -49.02250928172341,-21.889653857389597,1706.2730272740928 -49.02250932104242,-21.88964986931871,1709.5940146421253 -49.02250936042206,-21.889645883270948,1712.9103724073289 -49.02250939986223,-21.889641899241443,1716.2221061154269 -49.02250943936283,-21.88963791722535,1719.5292212867203 -49.02250947892377,-21.88963393721783,1722.8317234202623 -49.02250951854496,-21.88962995921407,1726.1296179982728 -49.022509558226304,-21.889625983209246,1729.4229104867222 -49.02250959796772,-21.889622009198575,1732.711606333181 -49.0225096377691,-21.889618037177264,1735.9957109655456 -49.022509677630374,-21.889614067140556,1739.275229792885 -49.02250971755144,-21.889610099083686,1742.5501682067502 -49.022509757532234,-21.889606133001923,1745.8205315813902 -49.02250979757263,-21.88960216889054,1749.086325273167 -49.022509837672565,-21.88959820674483,1752.347554620228 -49.02250987783193,-21.889594246560108,1755.6042249405818 -49.02250991805064,-21.88959028833169,1758.8563415289777 -49.02250995832857,-21.88958633205494,1762.1039096566906 -49.02250999866563,-21.88958237772524,1765.3469345753806 -49.022510039061714,-21.889578425337984,1768.585421520962 -49.02251007951672,-21.889574474888576,1771.819375713943 -49.02251012003056,-21.88957052637244,1775.048802357448 -49.02251016060311,-21.889566579785008,1778.2737066361774 -49.02251020123429,-21.889562635121735,1781.4940937172337 -49.022510241923996,-21.889558692378095,1784.709968751241 -49.02251028267214,-21.889554751549564,1787.9213368724577 -49.02251032347862,-21.889550812631626,1791.12820319824 -49.02251036434335,-21.889546875619796,1794.3305728287983 -49.02251040526622,-21.889542940509585,1797.5284508458885 -49.02251044624716,-21.88953900729653,1800.7218423101258 -49.022510487286056,-21.889535075976188,1803.9107522601157 -49.022510528382846,-21.889531146544137,1807.0951857152527 -49.02251056953743,-21.889527218995937,1810.2751476793933 -49.022510610749706,-21.889523293327194,1813.4506431418613 -49.022510656407476,-21.889518952782314,1816.958303613757 -49.02251070213562,-21.88951461452612,1820.4605109293839 -49.02251074793403,-21.889510278552677,1823.9572717721476 -49.02251079380255,-21.889505944856097,1827.4485928015224 -49.02251083974108,-21.889501613430497,1830.9344806538684 -49.02251088574946,-21.889497284270018,1834.4149419421387 -49.02251093182758,-21.889492957368816,1837.889983255207 -49.02251097797531,-21.889488632721072,1841.3596111549123 -49.02251102419253,-21.889484310320988,1844.8238321726662 -49.02251107047912,-21.889479990162798,1848.2826528103965 -49.02251111683495,-21.889475672240753,1851.736079545623 -49.022511163259914,-21.88947135654912,1855.1841188352641 -49.02251120975389,-21.889467043082178,1858.6267771150915 -49.022511256316754,-21.88946273183422,1862.0640607973064 -49.02251130294842,-21.889458422799567,1865.495976269849 -49.022511349648745,-21.889454115972548,1868.9225298977121 -49.02251139641763,-21.889449811347514,1872.34372802413 -49.022511443254956,-21.889445508918836,1875.7595769704662 -49.02251149016061,-21.88944120868089,1879.170083035569 -49.022511537134484,-21.889436910628103,1882.5752524746144 -49.02251158417644,-21.889432614754995,1885.9750914655806 -49.022511631286385,-21.889428321056158,1889.3696061058213 -49.02251167846415,-21.889424029526257,1892.7588024496963 -49.02251172570961,-21.889419740159923,1896.142686546617 -49.022511773022636,-21.889415452951823,1899.5212644441658 -49.02251182040308,-21.889411167896633,1902.8945421678268 -49.0225118678508,-21.88940688498905,1906.262525709656 -49.0225119153657,-21.889402604223797,1909.6252210357716 -49.02251196294762,-21.889398325595618,1912.9826340972563 -49.02251201059645,-21.889394049099252,1916.3347708310266 -49.02251205831207,-21.889389774729462,1919.681637153793 -49.022512106094354,-21.889385502481034,1923.0232389559442 -49.02251215394319,-21.88938123234877,1926.3595820956198 -49.022512201858476,-21.889376964327525,1929.6906723964285 -49.022512249840084,-21.889372698412167,1933.0165156532657 -49.02251229788791,-21.88936843459758,1936.3371176419482 -49.02251234600184,-21.889364172878647,1939.6524841236383 -49.02251239418178,-21.88935991325028,1942.962620842035 -49.02251244242761,-21.889355655707398,1946.2675335194485 -49.022512490739246,-21.889351400244916,1949.5672278568159 -49.02251253911655,-21.889347146857794,1952.861709536332 -49.02251258755944,-21.88934289554098,1956.1509842228415 -49.02251263606777,-21.889338646289463,1959.435057563017 -49.02251268464144,-21.889334399098207,1962.7139351842693 -49.022512733280315,-21.889330153962227,1965.9876226925162 -49.022512781984275,-21.889325910876572,1969.2561256693116 -49.0225128307532,-21.889321669836278,1972.5194496719455 -49.02251287958697,-21.889317430836428,1975.777600237374 -49.022512928485476,-21.889313193872102,1979.0305828859923 -49.02251297744858,-21.88930895893839,1982.2784031218753 -49.02251302647619,-21.889304726030414,1985.5210664307538 -49.02251307556818,-21.889300495143292,1988.7585782789934 -49.02251312472443,-21.889296266272158,1991.9909441144837 -49.02251317394485,-21.889292039412165,1995.2181693678076 -49.022513228537015,-21.889287360007337,1998.7867086720548 -49.02251328320761,-21.889282683057324,2002.3489553902132 -49.02251333795646,-21.889278008555596,2005.9049168244655 -49.02251339278342,-21.88927333649564,2009.4546002448278 -49.022513447688375,-21.88926866687102,2012.9980128873117 -49.022513502671174,-21.88926399967526,2016.535161957173 -49.02251355773166,-21.88925933490191,2020.0660546337717 -49.02251361286966,-21.889254672544567,2023.590698072801 -49.02251366808503,-21.889250012596865,2027.1090994053702 -49.02251372337762,-21.88924535505245,2030.621265736043 -49.02251377874724,-21.88924069990496,2034.1272041426964 -49.0225138341937,-21.889236047148067,2037.6269216778933 -49.02251388971685,-21.88923139677549,2041.120425369702 -49.02251394531652,-21.889226748780935,2044.607722221347 -49.02251400099256,-21.889222103158154,2048.08881920829 -49.022514056744804,-21.889217459900912,2051.5637232742906 -49.02251411257311,-21.88921281900301,2055.032441331213 -49.022514168477315,-21.889208180458255,2058.494980263577 -49.0225142244573,-21.889203544260482,2061.9513469331346 -49.02251428051291,-21.889198910403525,2065.401548179392 -49.022514336644015,-21.889194278881252,2068.8455908173773 -49.02251439285047,-21.889189649687527,2072.2834816363807 -49.02251444913214,-21.889185022816253,2075.7152274008745 -49.02251450548891,-21.88918039826133,2079.1408348518707 -49.02251456192062,-21.889175776016682,2082.5603107071456 -49.022514618427174,-21.88917115607625,2085.9736616606583 -49.022514675008416,-21.889166538433983,2089.380894379391 -49.0225147316642,-21.889161923083872,2092.7820154997316 -49.02251478839438,-21.889157310019947,2096.177031628378 -49.02251484519879,-21.88915269923622,2099.5659493475764 -49.02251490207727,-21.889148090726774,2102.9487752190466 -49.02251495902965,-21.889143484485693,2106.325515783315 -49.0225150160558,-21.88913888050706,2109.6961775570967 -49.02251507315554,-21.889134278784987,2113.0607670326076 -49.022515130328735,-21.889129679313605,2116.4192906790354 -49.02251518757524,-21.889125082087077,2119.771754943777 -49.02251524489488,-21.889120487099557,2123.118166252212 -49.02251530228756,-21.88911589434525,2126.458531006736 -49.02251535975309,-21.88911130381834,2129.792855583921 -49.022515417291366,-21.88910671551306,2133.1211463317077 -49.022515474902235,-21.889102129423662,2136.4434095705446 -49.02251553258556,-21.889097545544434,2139.7596515979358 -49.02251559034121,-21.889092963869636,2143.069878691632 -49.02251564816904,-21.889088384393588,2146.374097109006 -49.02251570606892,-21.889083807110584,2149.6723130849437 -49.022515764040726,-21.889079232014964,2152.964532831333 -49.022515822084316,-21.889074659101073,2156.2507625382577 -49.02251588019955,-21.88907008836327,2159.5310083749923 -49.02251593838628,-21.889065519795928,2162.8052764898816 -49.02251599664434,-21.889060953393443,2166.073573009806 -49.022516054973586,-21.889056389150248,2169.33590403767 -49.02251611337387,-21.88905182706079,2172.5922756494188 -49.02251617184503,-21.88904726711954,2175.842693894701 -49.02251623038693,-21.889042709320975,2179.087164801172 -49.022516288999434,-21.889038153659598,2182.325694377835 -49.022516347682384,-21.889033600129924,2185.558288614598 -49.02251640643564,-21.889029048726492,2188.784953480113 -49.02251646525909,-21.889024499443835,2192.005694921103 -49.02251652415257,-21.889019952276527,2195.2205188635107 -49.022516583115966,-21.889015407219123,2198.4294312135844 -49.02251664214914,-21.88901086426621,2201.632437857796 -49.022516701251966,-21.889006323412406,2204.8295446622337 -49.02251676042431,-21.88900178465231,2208.020757470572 -49.022516825905306,-21.88899677061442,2211.540997169803 -49.02251689147091,-21.888991759120394,2215.054051816568 -49.02251695712095,-21.888986750163067,2218.559929200428 -49.022517022855226,-21.88898174373525,2222.058637082967 -49.02251708867354,-21.888976739829786,2225.5501831979677 -49.022517154575674,-21.888971738439555,2229.0345752501876 -49.02251722056147,-21.88896673955747,2232.511820914538 -49.02251728663075,-21.888961743176466,2235.9819278366144 -49.02251735278333,-21.888956749289505,2239.444903633626 -49.02251741901899,-21.888951757889558,2242.900755894617 -49.02251748533754,-21.88894676896963,2246.3494921784663 -49.02251755173881,-21.88894178252275,2249.791120010279 -49.02251761822261,-21.88893679854198,2253.2256468802766 -49.02251768478877,-21.88893181702041,2256.65308024721 -49.0225177514371,-21.88892683795114,2260.0734275428517 -49.02251781816744,-21.8889218613273,2263.4866961733096 -49.0225178849796,-21.888916887142027,2266.8928935173185 -49.02251795187343,-21.888911915388466,2270.2920269247834 -49.022518018848764,-21.888906946059805,2273.6841037172953 -49.022518085905425,-21.888901979149242,2277.0691311894298 -49.02251815304324,-21.88889701464999,2280.4471166091935 -49.02251822026204,-21.888892052555278,2283.818067216814 -49.02251828756167,-21.88888709285836,2287.1819902214597 -49.02251835494196,-21.888882135552524,2290.5388927990216 -49.02251842240271,-21.888877180631074,2293.8887820942014 -49.02251848994375,-21.888872228087337,2297.231665225095 -49.02251855756485,-21.888867277914663,2300.567549285725 -49.02251862526583,-21.888862330106445,2303.89644134504 -49.02251869304648,-21.888857384656077,2307.218348444955 -49.02251876090661,-21.888852441556992,2310.5332776000846 -49.02251882884603,-21.888847500802623,2313.841235798997 -49.022518896864575,-21.888842562386426,2317.1422300051686 -49.022518964962046,-21.8888376263019,2320.4362671567787 -49.02251903313826,-21.88883269254254,2323.7233541639207 -49.02251910139305,-21.888827761101876,2327.003497905255 -49.022519169726266,-21.88882283197346,2330.2767052284044 -49.02251923813772,-21.888817905150862,2333.5429829542004 -49.02251930662725,-21.888812980627673,2336.8023378802377 -49.02251937519471,-21.888808058397505,2340.0547767807457 -49.02251944383994,-21.888803138453966,2343.300306404562 -49.02251951256277,-21.888798220790697,2346.538933474362 -49.02251958136306,-21.888793305401357,2349.77066468769 -49.02251965024065,-21.888788392279615,2352.995506718066 -49.02251971919539,-21.88878348141916,2356.213466215013 -49.02251978822711,-21.888778572813695,2359.4245498027108 -49.022519857335624,-21.888773666456956,2362.6287640772634 -49.02251992652077,-21.888768762342693,2365.8261156052367 -49.02251999578235,-21.888763860464707,2369.0166109257293 -49.02252006512021,-21.88875896081681,2372.200256554073 -49.022520134534155,-21.88875406339283,2375.3770589835217 -49.02252020402402,-21.888749168186603,2378.547024684261 -49.0225202808587,-21.888743764346696,2382.040090874987 -49.022520357785545,-21.8887383631962,2385.5248343787234 -49.022520434804335,-21.888732964726902,2389.001263809713 -49.02252051191485,-21.8887275689306,2392.469387747799 -49.02252058911685,-21.888722175799128,2395.9292147380997 -49.02252066641015,-21.88871678532435,2399.3807532881788 -49.02252074379453,-21.88871139749819,2402.824011863176 -49.02252082126978,-21.888706012312536,2406.2589988889695 -49.022520898835666,-21.888700629759363,2409.685722758072 -49.02252097649202,-21.88869524983064,2413.1041918310566 -49.0225210542386,-21.88868987251836,2416.514414435267 -49.0225211320752,-21.88868449781454,2419.9163988644927 -49.02252121000159,-21.888679125711224,2423.3101533786685 -49.02252128801757,-21.888673756200475,2426.6956862039165 -49.02252136612289,-21.88866838927436,2430.0730055336335 -49.02252144431727,-21.88866302492499,2433.4421195278114 -49.02252152260043,-21.888657663144553,2436.80303630962 -49.02252160097211,-21.88865230392527,2440.155763963301 -49.022521679432096,-21.888646947259375,2443.5003105367337 -49.022521757980144,-21.88864159313909,2446.836684046146 -49.022521836616015,-21.888636241556707,2450.164892478166 -49.02252191533947,-21.888630892504512,2453.4849437883445 -49.02252199415029,-21.88862554597484,2456.7968458992736 -49.02252207304827,-21.888620201960023,2460.1006067007374 -49.022522152033204,-21.888614860452417,2463.3962340511366 -49.0225222311049,-21.888609521444394,2466.6837357782783 -49.022522310263135,-21.888604184928358,2469.963119677132 -49.02252238950773,-21.888598850896734,2473.2343935060844 -49.02252246883848,-21.888593519342,2476.4975649864773 -49.02252254825522,-21.888588190256613,2479.752641806538 -49.02252262775774,-21.888582863633083,2482.9996316254537 -49.022522707345864,-21.88857753946392,2486.238542073895 -49.0225227870194,-21.88857221774166,2489.4693807521 -49.02252286677814,-21.888566898458862,2492.6921552287854 -49.02252294662188,-21.888561581608116,2495.9068730420368 -49.022523026550395,-21.888556267182018,2499.1135417006876 -49.02252310656344,-21.888550955173226,2502.312168684633 -49.02252318666081,-21.888545645574414,2505.5027614420756 -49.0225232668423,-21.888540338378274,2508.685327385911 -49.02252334710767,-21.888535033577526,2511.8598738940073 -49.022523427456726,-21.88852973116494,2515.0264083135467 -49.022523507889254,-21.888524431133284,2518.1849379646346 -49.02252358840503,-21.88851913347536,2521.3354701400835 -49.02252366900385,-21.888513838183982,2524.4780121033186 -49.02252374968552,-21.88850854525198,2527.6125710876736 -49.02252383044983,-21.88850325467221,2530.739154297514 -49.02252391129658,-21.888497966437555,2533.857768909352 -49.02252399222555,-21.888492680540907,2536.9684220718223 -49.02252407323655,-21.888487396975183,2540.071120903107 -49.02252415432939,-21.888482115733332,2543.1658724878225 -49.02252423550385,-21.88847683680834,2546.2526838774093 -49.02252432646798,-21.88847093026368,2549.6986827752917 -49.022524417533866,-21.888465026603647,2553.1347505835824 -49.02252450870123,-21.888459125818475,2556.5608970717894 -49.02252459996978,-21.888453227898413,2559.9771319664414 -49.02252469133917,-21.888447332833767,2563.3834649501014 -49.02252478280908,-21.888441440614887,2566.7799056622503 -49.022524874379165,-21.88843555123217,2570.1664637004487 -49.02252496604914,-21.888429664676046,2573.5431486183393 -49.022525057818704,-21.88842378093697,2576.9099699214867 -49.02252514968757,-21.888417900005432,2580.266937066521 -49.02252524165542,-21.888412021871982,2583.614059465326 -49.02252533372199,-21.88840614652721,2586.951346489678 -49.022525425886975,-21.888400273961693,2590.278807472083 -49.02252551815014,-21.888394404166036,2593.5964517038233 -49.022525610511195,-21.888388537130883,2596.904288433793 -49.02252570296989,-21.888382672846905,2600.2023268693565 -49.022525795525944,-21.88837681130479,2603.4905761776586 -49.0225258881791,-21.88837095249527,2606.7690454840194 -49.02252598092912,-21.888365096409082,2610.0377438679907 -49.02252607377574,-21.888359243037023,2613.296680362262 -49.02252616671869,-21.88835339236991,2616.54586395653 -49.02252625975772,-21.88834754439859,2619.785303602176 -49.022526352892555,-21.88834169911393,2623.0150082133127 -49.022526446122896,-21.888335856506806,2626.2349866649542 -49.02252653944842,-21.888330016568165,2629.4452477919385 -49.022526632868825,-21.88832417928899,2632.6458003898024 -49.0225267263838,-21.888318344660295,2635.836653215869 -49.022526819993075,-21.888312512673117,2639.01781498774 -49.022526913696346,-21.88830668331852,2642.189294379697 -49.02252700749332,-21.888300856587612,2645.351100021534 -49.02252710138374,-21.888295032471557,2648.5032405018596 -49.0225271953673,-21.888289210961524,2651.6457243723617 -49.02252728944375,-21.888283392048717,2654.778560149016 -49.022527383612825,-21.88827757572434,2657.901756310547 -49.022527477874256,-21.88827176197966,2661.015321297196 -49.02252757222777,-21.88826595080595,2664.1192635112616 -49.022527666673135,-21.888260142194508,2667.2135913182906 -49.022527761210085,-21.888254336136676,2670.2983130464754 -49.02252785583836,-21.888248532623805,2673.373436983446 -49.022527960779456,-21.888242106113566,2676.7690428771048 -49.022528065832,-21.88823568270469,2680.152890188641 -49.02252817099562,-21.88822926238557,2683.524990017699 -49.0225282762699,-21.888222845144615,2686.885353411743 -49.022528381654446,-21.88821643097032,2690.2339913656383 -49.02252848714892,-21.888210019851222,2693.570914820146 -49.02252859275299,-21.8882036117759,2696.896134661739 -49.02252869846626,-21.88819720673299,2700.2096617236652 -49.02252880428833,-21.88819080471117,2703.5115067834786 -49.022528910218824,-21.888184405699157,2706.801680558596 -49.02252901625739,-21.888178009685713,2710.080193706682 -49.02252912240368,-21.888171616659676,2713.3470568314956 -49.02252922865735,-21.8881652266099,2716.6022804876707 -49.022529335018035,-21.888158839525257,2719.8458751803128 -49.02252944148539,-21.888152455394668,2723.077851362188 -49.02252954805908,-21.88814607420707,2726.298219432899 -49.0225296547388,-21.88813969595146,2729.506989740514 -49.02252976152417,-21.88813332061685,2732.704172581174 -49.02252986841488,-21.888126948192298,2735.8897781953224 -49.022529975410585,-21.88812057866692,2739.063816765815 -49.022530082510954,-21.88811421202986,2742.2262984214417 -49.02253018971566,-21.888107848270284,2745.3772332421927 -49.02253029702436,-21.888101487377412,2748.5166312609963 -49.02253040443668,-21.888095129340474,2751.6445024618647 -49.022530511952255,-21.88808877414874,2754.7608567783495 -49.02253061957067,-21.888082421791548,2757.8657040944813 -49.02253072729151,-21.888076072258283,2760.959054245905 -49.02253083511441,-21.88806972553839,2764.040917017027 -49.02253094303897,-21.888063381621315,2767.111302137086 -49.02253105106485,-21.888057040496594,2770.170219281313 -49.022531159191665,-21.888050702153766,2773.217678076554 -49.02253126741905,-21.88804436658244,2776.2536881050146 -49.02253137574663,-21.88803803377225,2779.278258903196 -49.02253148417408,-21.888031703712837,2782.2913999593325 -49.022531592701064,-21.888025376393905,2785.293120713122 -49.02253170132724,-21.888019051805166,2788.2834305574634 -49.02253182145879,-21.888012067187425,2791.574044699313 -49.02253194171059,-21.888005085876262,2794.850753324151 -49.02253206208222,-21.887998107858024,2798.1135688863974 -49.02253218257327,-21.887991133119097,2801.362503768851 -49.022532303183354,-21.887984161645896,2804.597570287341 -49.02253242391203,-21.887977193424913,2807.8187806920955 -49.0225325447589,-21.88797022844267,2811.026147166814 -49.02253266572352,-21.887963266685773,2814.2196818274547 -49.02253278680539,-21.887956308140865,2817.3993967222723 -49.022532908004,-21.887949352794667,2820.5653038301293 -49.022533029318815,-21.887942400633996,2823.7174150571373 -49.02253315074933,-21.88793545164576,2826.8557422367735 -49.02253327229509,-21.887928505816923,2829.980297134945 -49.02253339395562,-21.887921563134448,2833.0910914550163 -49.02253351573044,-21.88791462358537,2836.188136838363 -49.022533637619055,-21.8879076871568,2839.271444861795 -49.02253375962103,-21.88790075383588,2842.3410270360623 -49.02253388173591,-21.887893823609808,2845.396894806143 -49.02253400396327,-21.887886896465805,2848.4390595494847 -49.022534126302666,-21.88787997239118,2851.467532573386 -49.02253424875366,-21.887873051373298,2854.482325116386 -49.02253437131581,-21.887866133399577,2857.48344835344 -49.0225344939887,-21.887859218457475,2860.470913399568 -49.02253461677192,-21.887852306534466,2863.4447313092633 -49.02253473966505,-21.887845397618086,2866.404913074355 -49.02253486266766,-21.887838491695927,2869.3514696237116 -49.02253498577932,-21.887831588755624,2872.284411823412 -49.022535122945186,-21.88782390844263,2875.5331317547807 -49.02253526024499,-21.887816231792144,2878.7650111777048 -49.02253539767808,-21.88780855878739,2881.98006479248 -49.02253553524376,-21.887800889411725,2885.178307208299 -49.02253567294141,-21.88779322364858,2888.359752946951 -49.02253581077041,-21.887785561481447,2891.5244164405262 -49.02253594873014,-21.887777902893887,2894.6723120286615 -49.022536086820004,-21.887770247869557,2897.803453955915 -49.02253622503938,-21.88776259639225,2900.9178563638266 -49.02253636338769,-21.88775494844588,2904.015533284667 -49.02253650186434,-21.88774730401446,2907.0964986479144 -49.02253664046876,-21.887739663082066,2910.160766294896 -49.02253677920041,-21.887732025632832,2913.2083499868577 -49.022536918058684,-21.887724391650966,2916.2392634016196 -49.022537057043024,-21.887716761120764,2919.2535201275523 -49.02253719615287,-21.8877091340266,2922.2511336620573 -49.02253733538765,-21.887701510352937,2925.2321174112935 -49.022537474746834,-21.887693890084307,2928.196484689342 -49.02253761422981,-21.887686273205365,2931.144248720116 -49.022537753836026,-21.88767865970082,2934.075422642414 -49.02253789356486,-21.887671049555475,2936.9900195136183 -49.022538033415685,-21.88766344275418,2939.8880523095795 -49.02253817338783,-21.887655839281923,2942.769533923226 -49.02253831348061,-21.887648239123767,2945.634477163965 -49.02253845369339,-21.887640642264923,2948.482894754609 -49.02253859402555,-21.887633048690645,2951.314799327692 -49.022538734476456,-21.887625458386285,2954.1302034273476 -49.02253887504549,-21.8876178713373,2956.929119516194 -49.02253901573204,-21.887610287529217,2959.7115599799686 -49.022539156535494,-21.887602706947657,2962.4775371263513 -49.02253929745527,-21.887595129578283,2965.2270631819383 -49.02253943849078,-21.88758755540686,2967.9601502920486 -49.02253957964146,-21.887579984419226,2970.6768105197384 -49.0225397366814,-21.887571572100228,2973.6774313113356 -49.022539893862174,-21.887563163678927,2976.6577846588475 -49.02254005118303,-21.88755475913632,2979.6178867719764 -49.02254020864326,-21.887546358453502,2982.5577537440067 -49.02254036624212,-21.887537961611677,2985.4774015526295 -49.02254052397887,-21.88752956859216,2988.37684605953 -49.02254068185277,-21.887521179376453,2991.256103008827 -49.02254083986304,-21.887512793946186,2994.115188021441 -49.02254099800884,-21.88750441228317,2996.954116593286 -49.02254115628929,-21.88749603436936,2999.7729041011626 -49.02254131470351,-21.887487660186896,3002.5715658111067 -49.02254147325065,-21.887479289718073,3005.3501168810585 -49.022541631929904,-21.88747092294529,3008.1085723577953 -49.02254179074047,-21.88746255985107,3010.846947174694 -49.02254194968151,-21.887454200418087,3013.5652561498828 -49.02254210875222,-21.887445844629237,3016.2635139834592 -49.02254226795179,-21.887437492467544,3018.941735257884 -49.022542427279454,-21.887429143916172,3021.5999344437832 -49.02254260438581,-21.887419875814,3024.528811404421 -49.02254278164816,-21.887410612122,3027.4330275236375 -49.02254295906538,-21.887401352817673,3030.3126021684748 -49.02254313663641,-21.887392097878806,3033.1675545412845 -49.022543314360306,-21.887382847283533,3035.997903676738 -49.022543492236125,-21.887373601010097,3038.803668433219 -49.02254367026276,-21.887364359036887,3041.5848675049033 -49.02254384843918,-21.887355121342686,3044.341519438772 -49.0225440267644,-21.887345887906537,3047.073642629679 -49.022544205237374,-21.887336658707586,3049.781255315482 -49.02254438385692,-21.88732743372522,3052.4643755752413 -49.02254456262179,-21.88731821293917,3055.123021329358 -49.022544741530794,-21.887308996329594,3057.757210341372 -49.02254492058281,-21.88729978387689,3060.366960222006 -49.02254509977672,-21.887290575561618,3062.9522884341413 -49.02254527911141,-21.88728137136455,3065.513212296212 -49.02254545858575,-21.887272171266734,3068.0497489829386 -49.02254563819861,-21.887262975249552,3070.5619155214204 -49.02254581794888,-21.887253783294668,3073.0497287853445 -49.022545997835515,-21.887244595384004,3075.513205495375 -49.02254617785742,-21.887235411499745,3077.952362227705 -49.02254635801352,-21.88722623162433,3080.367215422896 -49.02254653830275,-21.887217055740493,3082.757781387883 -49.02254671872403,-21.88720788383123,3085.124076293142 -49.02254692528619,-21.88719739603842,3087.8013682918363 -49.02254713201827,-21.88718691340082,3090.4469407395145 -49.02254733891872,-21.88717643589443,3093.0608171693893 -49.02254754598589,-21.887165963495686,3095.6430208860293 -49.02254775321802,-21.887155496181535,3098.1935749762474 -49.02254796061369,-21.887145033929524,3100.7125023178082 -49.0225481681715,-21.887134576717717,3103.1998255725653 -49.022548375889656,-21.887124124524625,3105.6555671773535 -49.0225485837662,-21.887113677329328,3108.079749346882 -49.02254879179928,-21.88710323511156,3110.4723940861677 -49.02254899998727,-21.88709279785161,3112.8335232008126 -49.02254920832861,-21.887082365530222,3115.163158300603 -49.02254941682161,-21.887071938128614,3117.4613208004766 -49.02254962546453,-21.887061515628595,3119.728031917849 -49.02254983425562,-21.887051098012606,3121.9633126688796 -49.022550070637685,-21.887039318423348,3124.454221925461 -49.02255030720495,-21.88702754503927,3126.9049618027634 -49.02255054395494,-21.88701577783734,3129.315561874836 -49.02255078088519,-21.887004016795405,3131.6860514381683 -49.022551017993415,-21.886992261892427,3134.01645951633 -49.022551255277314,-21.886980513108075,3136.306814829854 -49.02255149273443,-21.886968770422776,3138.557145816599 -49.02255173036232,-21.886957033818042,3140.7674806724362 -49.02255196815858,-21.88694530327626,3142.937847352854 -49.02255220612075,-21.886933578780468,3145.0682735689534 -49.02255244424628,-21.88692186031454,3147.1587867953463 -49.0225526825325,-21.886910147863247,3149.2094142727465 -49.02255292097667,-21.886898441412278,3151.2201830198073 -49.02255315957607,-21.88688674094811,3153.1911198513767 -49.02255339832805,-21.886875046457902,3155.1222513906578 -49.022553637229976,-21.8868633579294,3157.0136040734874 -49.02255387627923,-21.88685167535103,3158.8652041506825 -49.02255411547317,-21.886839998711885,3160.677077694313 -49.02255435480912,-21.886828328001737,3162.449250609634 -49.022554594284465,-21.88681666321085,3164.181748649727 -49.02255483389661,-21.88680500432989,3165.874597428555 -49.022555099420416,-21.886792099158868,3167.703164992359 -49.02255536510533,-21.886779201213844,3169.483167362388 -49.0225556309479,-21.886766310483626,3171.2146388112924 -49.02255589694464,-21.88675342695732,3172.8976134552345 -49.02255616309212,-21.88674055062413,3174.53212527523 -49.02255642938689,-21.886727681473193,3176.118208140996 -49.02255672777604,-21.886713278063496,3177.836988835111 -49.02255702634084,-21.88669888363147,3179.495122818429 -49.02255732507644,-21.88668449816025,3181.092657329199 -49.022557623977974,-21.886670121631816,3182.6296395457125 -49.022557923040445,-21.88665575402652,3184.106116621539 -49.022558222258944,-21.886641395322695,3185.522135723483 -49.022558521628774,-21.886627045496233,3186.877744067062 -49.02255882114549,-21.886612704520193,3188.172988947561 -49.02255912080481,-21.88659837236422,3189.4079177710432 -49.022559420602526,-21.886584048994056,3190.582578088512 -49.02255972053457,-21.886569734370966,3191.697017631435 -49.02256002059711,-21.886555428451175,3192.7512843461805 -49.022560362399126,-21.886539150434622,3193.878461698205 -49.022560704360934,-21.886522883553617,3194.927766109556 -49.022561046478245,-21.88650662771324,3195.8992697103536 -49.022561388747285,-21.886490382805054,3196.793045227234 -49.022561731164856,-21.886474148705375,3197.6091660284537 -49.02256207372849,-21.886457925273625,3198.3477061584767 -49.02256241643642,-21.886441712350486,3199.008740356317 -49.02256275928774,-21.88642550975576,3199.592344041245 -49.02256310228248,-21.886409317285974,3200.0985932586254 -49.02256344542187,-21.88639313471179,3200.527564581186 -49.02256378870833,-21.886376961775326,3200.8793349481953 -49.02256413214554,-21.886360798187205,3201.1539814172684 -49.02256447573854,-21.88634464362353,3201.351580813837 -49.02256481949394,-21.886328497722886,3201.472209252508 -49.0225651634202,-21.886312360083423,3201.5159415064327 -49.02256518720522,-21.886311244649942,3201.5161249245675 -49.02256518984435,-21.886311120888696,3201.516122643682 -49.02256519564611,-21.8863108488228,3201.516090815193 -49.022565201447925,-21.886310576759108,3201.516037140772 -49.02256521305166,-21.886310032636143,3201.5158861007444 -49.0225652246556,-21.886309488522,3201.5156476797074 -49.02256523625975,-21.886308944416655,3201.5153218803775 -49.022565352312796,-21.88630350384327,3201.5072586604983 -49.0225654683872,-21.886298064129388,3201.490460577144 -49.022565584483445,-21.88629262525593,3201.464930258348 -49.02256570060208,-21.886287187203116,3201.430670288617 -49.02256602910943,-21.88627181275208,3201.2865541800174 -49.02256635781405,-21.886256444212698,3201.0726967687633 -49.02256668673199,-21.88624108106149,3200.789146556186 -49.02256701588052,-21.886225722741433,3200.4359451922314 -49.02256734527892,-21.8862103686662,3200.013125947421 -49.02256772782848,-21.88619255749307,3199.435294303279 -49.022568110777854,-21.886174750247655,3198.7637794510197 -49.02256849416406,-21.886156945970477,3197.998572191798 -49.02256887802496,-21.886139143749237,3197.13963444321 -49.022569262397916,-21.88612134276712,3196.186895928662 -49.02256948986186,-21.886110820646262,3195.5795655876036 -49.02256971752396,-21.886100298619592,3194.939395888783 -49.02256994539008,-21.88608977661588,3194.266354623689 -49.02257017346552,-21.88607925460207,3193.5604050185743 -49.02257040175453,-21.88606873258868,3192.821505850489 -49.0225706064605,-21.88605930606122,3192.1315129937025 -49.02257081134167,-21.88604987966226,3191.4150021564396 -49.02257099029511,-21.886041652971933,3190.767966773321 -49.02257104668132,-21.886039061760187,3190.559478746956 -49.02257110268567,-21.88603648801584,3190.3509003029976 -49.02257121393881,-21.88603137508496,3189.933552113194 -49.02257132369711,-21.88602633052223,3189.515800521982 -49.022571431992425,-21.88602135286133,3189.0976050294457 -49.02257195274362,-21.88599741198989,3186.997756449659 -49.022572441122406,-21.88597495029786,3184.881682176183 -49.02257290003309,-21.88595383411327,3182.7461822889973 -49.022573331980006,-21.885933948153998,3180.588793347974 -49.02257393863523,-21.88590599783312,3177.281259965109 -49.022574494806925,-21.885880346184656,3173.9154547775247 -49.022575005665196,-21.885856755172536,3170.4893780021303 -49.02257547559216,-21.885835023089104,3167.0025330021367 -49.02257590828444,-21.88581497985518,3163.455764026289 -49.02257657459123,-21.885784034169145,3157.2195322545695 -49.02257715368329,-21.88575703080078,3150.8247353501542 -49.02257765697413,-21.885733446645087,3144.2874563839728 -49.02257809392819,-21.885712848974432,3137.625416407764 -49.02257847274062,-21.885694864028633,3130.8560419919427 -49.02257880057591,-21.88567916585951,3123.9956005536183 -49.022579231089786,-21.885658272618972,3112.9631014726133 -49.022579570119134,-21.885641467033327,3101.789278055844 -49.02257983502873,-21.885627966030594,3090.5140837067797 -49.022580040038534,-21.88561713022914,3079.1678534806647 -49.022580196740414,-21.885608439819286,3067.773117741219 -49.02258032084822,-21.88560108437011,3055.6245881881673 -49.022580410050764,-21.885595273772402,3043.4538525391213 -49.02258047159674,-21.885590685261988,3031.270614996943 -49.02258051124683,-21.88558706288158,3019.081541442581 -49.022580533573894,-21.885584203858404,3006.8911413276146 -49.022580542081506,-21.885580837582847,2987.4590361928613 -49.02258052645425,-21.885578532245475,2968.038225306821 -49.022580494285066,-21.885576953432047,2948.632891478335 -49.02258045080087,-21.885575871573895,2929.245223536699 -49.02258039956374,-21.885575130723325,2909.8758909012863 -49.02258033090714,-21.88557454225938,2886.554406448284 -49.022580257403796,-21.885574169280197,2863.2608058749565 -49.02258018090589,-21.88557393133992,2839.9952494018544 -49.022580102515946,-21.885573780776358,2816.757490120375 -49.022580052458764,-21.88557371549261,2802.1165315116123 -49.022580002065446,-21.885573666988744,2787.4866510459487 -49.022579951440655,-21.88557363075403,2772.86783081295 -49.02257990079526,-21.885573603697527,2758.299516362007 -49.02257985004564,-21.88557358343505,2743.7421500121545 -49.02257979923158,-21.885573568263528,2729.195712246727 -49.02257969759226,-21.885573548319762,2700.1549513483037 -49.02257959595678,-21.885573537529947,2671.157605505908 -49.02257949442843,-21.885573531462533,2642.203513926701 -49.02257939329499,-21.88557352791238,2613.3599684753563 -49.022579292342684,-21.88557352583739,2584.559159983901 -49.02257919158461,-21.885573524646187,2555.8009328145667 -49.02257909119216,-21.885573523963792,2527.1318419760914 -49.02257899100538,-21.88557352356682,2498.5048865695494 -49.02257889102614,-21.88557352333272,2469.9199144998906 -49.02257874693378,-21.88557352315455,2428.6914055004895 -49.0225786032751,-21.885573523075163,2387.549781435635 -49.022578460048614,-21.885573523024995,2346.494595053716 -49.022577981785815,-21.885573522926105,2209.1347022635136 -49.02257786296695,-21.88557352291024,2174.9448680859823 -49.02257774444227,-21.885573522888993,2140.8142645327916 -49.02257750826669,-21.885573522852912,2072.730174871207 -49.022577273246796,-21.885573522820163,2004.8807596232132 -49.02257703936971,-21.885573522788874,1937.2641373148763 -49.02257662100791,-21.885573522734134,1816.06983704712 -49.02257620623808,-21.885573522679465,1695.6138718299771 -49.02257579497974,-21.885573522624842,1575.8844501250912 -49.02257538715825,-21.88557352257089,1456.8705078287846 -49.02257470984524,-21.885573522481888,1258.5922113665306 -49.0225740416903,-21.88557352239466,1062.2508365664755 -49.02257338237812,-21.88557352230888,867.7984382091254 -49.02257315442823,-21.88557352227928,800.4072318471574 -49.02257314858404,-21.885573522278523,798.6783548529161 -49.02257314274052,-21.88557352227776,796.9496248969799 -49.022573067721346,-21.885573522268018,774.7517224036671 -49.02257306761933,-21.885573522268,774.7215299957109 -49.022573067517925,-21.88557352226799,774.6915215914219 -49.02257306731638,-21.885573522267965,774.6318678954026 -49.02257306711724,-21.885573522267936,774.5729307196393 -49.02257306692048,-21.88557352226791,774.5146910573683 -49.022573065993406,-21.885573522267794,774.2402166303518 -49.02257306511509,-21.88557352226768,773.9799861452614 -49.022573064280465,-21.88557352226757,773.7324235082315 -49.022573063485204,-21.885573522267467,773.4961801257425 -49.022573062353196,-21.885573522267322,773.1590926116071 -49.02257306129164,-21.885573522267183,772.8418312329984 -49.02257306029194,-21.885573522267055,772.5417363859883 -49.02257305934695,-21.885573522266935,772.2565944445505 -49.022573058450796,-21.885573522266814,771.9845854197508 -49.02257305698768,-21.885573522266625,771.5363839837748 -49.02257305563746,-21.885573522266448,771.1171634355715 -49.02257305438338,-21.885573522266288,770.7218123957464 -49.022573053212554,-21.885573522266135,770.3464301113963 -49.022573052114524,-21.885573522265993,769.987881032212 -49.0225730510807,-21.88557352226586,769.6436141478523 -49.02257304951637,-21.88557352226566,769.1082095907316 -49.02257304807948,-21.885573522265474,768.5982745224205 -49.022573046751084,-21.885573522265307,768.1085181084864 -49.022573045516246,-21.88557352226515,767.6349136452193 -49.02257304436282,-21.885573522265005,767.1743203827002 -49.022573043280865,-21.88557352226487,766.72427572178 -49.022573041655214,-21.88557352226468,766.0110306068361 -49.02257304016757,-21.8855735222645,765.3142323144004 -49.022573038795436,-21.885573522264337,764.6294515274108 -49.0225730375206,-21.885573522264195,763.9534655063578 -49.02257303632823,-21.885573522264064,763.2839292280471 -49.02257303477065,-21.885573522263897,762.3518323438043 -49.02257303332428,-21.885573522263755,761.4259252962368 -49.02257303196735,-21.885573522263627,760.5040497443092 -49.02257303068274,-21.885573522263517,759.5848769799934 -49.02257302909856,-21.885573522263385,758.3924501460485 -49.022573027589715,-21.885573522263268,757.2017928068806 -49.02257302613836,-21.88557352226317,756.0122245949942 -49.02257302473086,-21.88557352226308,754.8233327356913 -49.02257302327558,-21.88557352226299,753.5644477408609 -49.02257302184899,-21.88557352226291,752.305872317781 -49.02257302044384,-21.885573522262835,751.0474955954207 -49.02257301905164,-21.88557352226277,749.7864710854392 -49.02257301767153,-21.8855735222627,748.5255588257116 -49.0225730163005,-21.885573522262636,747.2647456939901 -49.02257301493609,-21.885573522262572,746.0038368501887 -49.022573013576846,-21.885573522262515,744.7430130300579 -49.0225730059336,-21.885573522262185,737.6165947358884 -49.02257299833324,-21.885573522261872,730.4926939957547 -49.0225729907463,-21.88557352226157,723.3712846310693 -49.02257296743802,-21.88557352226062,701.4943985405857 -49.02257294416399,-21.88557352225968,679.6409800036099 -49.02257292092202,-21.885573522258735,657.8109810555688 -49.02257282279712,-21.88557352225476,565.5582642875364 -49.022572725268375,-21.885573522250816,473.7211554719023 -49.02257262832969,-21.885573522246904,382.2962973855741 -49.02257246928158,-21.88557352224049,231.98725580367227 -49.02257231179124,-21.88557352223416,82.77942073473639 -49.022572224581104,-21.88557352223066,-5.3401879668513175e-05</coordinates>
            </LineString>
        </Placemark>
    </Document>
</kml>
